ONEWEB-0525             
1 54143U 22138AG  23348.90109742  .00000069  00000+0  13942-3 0  9991
2 54143  87.9192 127.1585 0001274 114.9831 245.1434 13.19724432 56106
ONEWEB-0526             
1 54144U 22138AH  23348.93427247  .00000067  00000+0  13489-3 0  9992
2 54144  87.9188 127.1509 0001581 110.3024 249.8279 13.19724638 56086
ONEWEB-0529             
1 54145U 22138AJ  23348.86161521 -.00000017  00000+0 -74326-4 0  9990
2 54145  87.9197 127.1661 0001336 117.2380 242.8889 13.19725727 56096
ONEWEB-0531             
1 54146U 22138AK  23348.86320718 -.00005736  00000+0 -14141-1 0  9995
2 54146  87.9243  96.6335 0003321  91.1791 268.9723 13.20806343 58486
ONEWEB-0535             
1 54147U 22138AL  23348.89479187  .00000029  00000+0  39625-4 0  9999
2 54147  87.9189 127.1577 0001782  91.7782 268.3555 13.19725369 56110
ONEWEB-0536             
1 54148U 22138AM  23348.85059500 -.00006648  00000+0 -16385-1 0  9999
2 54148  87.9245  96.6859 0002515  98.1946 261.9473 13.20807780 58474
GSLV R/B                
1 54149U 22138AN  23348.76562278  .00002088  00000+0  21557-3 0  9992
2 54149  87.3812  78.7632 0022938 217.7809 142.1809 14.89488194 62172
ONEWEB-0527             
1 54642U 22166A   23348.77468141  .00000078  00000+0  15820-3 0  9999
2 54642  87.9232  66.2338 0001872 107.2552 252.8787 13.21826342 50604
